{"type": "FeatureCollection", "features": [ {"type": "Feature", "properties": {"norad_id": 30960, "name": "FENGYUN 1C DEB", "group": "fengyun-1c-debris", "lat": -2.1316713316819564, "lon": 111.97408782478473, "alt_km": 776.8198272651298, "timestamp": "2025-12-20T20:38:44.722444+00:00", "meta": {"OBJECT_NAME": "FENGYUN 1C DEB", "OBJECT_ID": "1999-025BBA", "EPOCH": "2025-12-20T14:06:29.253312", "MEAN_MOTION": 14.67036507, "ECCENTRICITY": 0.01960791, "INCLINATION": 99.0011, "RA_OF_ASC_NODE": 111.337, "ARG_OF_PERICENTER": 137.7391, "MEAN_ANOMALY": 223.9112, "EPHEMERIS_TYPE": 0, "CLASSIFICATION_TYPE": "U", "NORAD_CAT_ID": 30960, "ELEMENT_SET_NO": 999, "REV_AT_EPOCH": 98813, "BSTAR": 0.00091606685, "MEAN_MOTION_DOT": 6.798e-05, "MEAN_MOTION_DDOT": 0}, "tle": {"line1": "1 30960U 99025BBA 25354.58783858  .00006798  00000+0  91607-3 0  9999", "line2": "2 30960  99.0011 111.3370 0196079 137.7391 223.9112 14.67036507988137"}}, "geometry": {"type": "Point", "coordinates": [111.97408782478473, -2.1316713316819564]}}, {"type": "Feature", "properties": {"norad_id": 30967, "name": "FENGYUN 1C DEB", "group": "fengyun-1c-debris", "lat": -56.938882962601795, "lon": -44.790937270318175, "alt_km": 705.7799336976168, "timestamp": "2025-12-20T20:38:44.722454+00:00", "meta": {"OBJECT_NAME": "FENGYUN 1C DEB", "OBJECT_ID": "1999-025BBH", "EPOCH": "2025-12-19T08:39:28.660032", "MEAN_MOTION": 14.57183014, "ECCENTRICITY": 0.0094665, "INCLINATION": 98.7641, "RA_OF_ASC_NODE": 299.9224, "ARG_OF_PERICENTER": 219.135, "MEAN_ANOMALY": 140.2975, "EPHEMERIS_TYPE": 0, "CLASSIFICATION_TYPE": "U", "NORAD_CAT_ID": 30967, "ELEMENT_SET_NO": 999, "REV_AT_EPOCH": 99110, "BSTAR": 0.0004775, "MEAN_MOTION_DOT": 2.235e-05, "MEAN_MOTION_DDOT": 0}, "tle": {"line1": "1 30967U 99025BBH 25353.36074838  .00002235  00000+0  47750-3 0  9994", "line2": "2 30967  98.7641 299.9224 0094665 219.1350 140.2975 14.57183014991102"}}, "geometry": {"type": "Point", "coordinates": [-44.790937270318175, -56.938882962601795]}}, {"type": "Feature", "properties": {"norad_id": 30971, "name": "FENGYUN 1C DEB", "group": "fengyun-1c-debris", "lat": -32.0133346036866, "lon": -146.04503797820541, "alt_km": 580.7357178091534, "timestamp": "2025-12-20T20:38:44.722465+00:00", "meta": {"OBJECT_NAME": "FENGYUN 1C DEB", "OBJECT_ID": "1999-025BBM", "EPOCH": "2025-12-19T21:39:07.398144", "MEAN_MOTION": 14.71761036, "ECCENTRICITY": 0.0163996, "INCLINATION": 99.2089, "RA_OF_ASC_NODE": 38.6926, "ARG_OF_PERICENTER": 169.0815, "MEAN_ANOMALY": 8.709, "EPHEMERIS_TYPE": 0, "CLASSIFICATION_TYPE": "U", "NORAD_CAT_ID": 30971, "ELEMENT_SET_NO": 999, "REV_AT_EPOCH": 99822, "BSTAR": 0.00038778, "MEAN_MOTION_DOT": 2.917e-05, "MEAN_MOTION_DDOT": 0}, "tle": {"line1": "1 30971U 99025BBM 25353.90216896  .00002917  00000+0  38778-3 0  9998", "line2": "2 30971  99.2089  38.6926 0163996 169.0815   8.7090 14.71761036998227"}}, "geometry": {"type": "Point", "coordinates": [-146.04503797820541, -32.0133346036866]}}, {"type": "Feature", "properties": {"norad_id": 30979, "name": "FENGYUN 1C DEB", "group": "fengyun-1c-debris", "lat": 68.61646223456677, "lon": 93.67806196767958, "alt_km": 657.6282728479418, "timestamp": "2025-12-20T20:38:44.722476+00:00", "meta": {"OBJECT_NAME": "FENGYUN 1C DEB", "OBJECT_ID": "1999-025BBV", "EPOCH": "2025-12-20T04:36:25.320672", "MEAN_MOTION": 14.78894902, "ECCENTRICITY": 0.01901959, "INCLINATION": 97.8319, "RA_OF_ASC_NODE": 252.4467, "ARG_OF_PERICENTER": 216.8078, "MEAN_ANOMALY": 299.4529, "EPHEMERIS_TYPE": 0, "CLASSIFICATION_TYPE": "U", "NORAD_CAT_ID": 30979, "ELEMENT_SET_NO": 999, "REV_AT_EPOCH": 99255, "BSTAR": 0.00049413286, "MEAN_MOTION_DOT": 4.882e-05, "MEAN_MOTION_DDOT": 0}, "tle": {"line1": "1 30979U 99025BBV 25354.19195973  .00004882  00000+0  49413-3 0  9991", "line2": "2 30979  97.8319 252.4467 0190195 216.8078 299.4529 14.78894902992556"}}, "geometry": {"type": "Point", "coordinates": [93.67806196767958, 68.61646223456677]}}, {"type": "Feature", "properties": {"norad_id": 30982, "name": "FENGYUN 1C DEB", "group": "fengyun-1c-debris", "lat": -52.111601925662406, "lon": 154.21026477139853, "alt_km": 653.9723685981035, "timestamp": "2025-12-20T20:38:44.722486+00:00", "meta": {"OBJECT_NAME": "FENGYUN 1C DEB", "OBJECT_ID": "1999-025BBY", "EPOCH": "2025-12-19T11:10:19.021152", "MEAN_MOTION": 14.50972134, "ECCENTRICITY": 0.0180096, "INCLINATION": 98.2165, "RA_OF_ASC_NODE": 343.5483, "ARG_OF_PERICENTER": 291.7796, "MEAN_ANOMALY": 221.541, "EPHEMERIS_TYPE": 0, "CLASSIFICATION_TYPE": "U", "NORAD_CAT_ID": 30982, "ELEMENT_SET_NO": 999, "REV_AT_EPOCH": 71151, "BSTAR": 0.000239, "MEAN_MOTION_DOT": 1.11e-05, "MEAN_MOTION_DDOT": 0}, "tle": {"line1": "1 30982U 99025BBY 25353.46549793  .00001110  00000+0  23900-3 0  9991", "line2": "2 30982  98.2165 343.5483 0180096 291.7796 221.5410 14.50972134711516"}}, "geometry": {"type": "Point", "coordinates": [154.21026477139853, -52.111601925662406]}}, {"type": "Feature", "properties": {"norad_id": 30984, "name": "FENGYUN 1C DEB", "group": "fengyun-1c-debris", "lat": 78.12023647549056, "lon": -105.25883482097811, "alt_km": 754.5132981062088, "timestamp": "2025-12-20T20:38:44.722497+00:00", "meta": {"OBJECT_NAME": "FENGYUN 1C DEB", "OBJECT_ID": "1999-025BCA", "EPOCH": "2025-12-19T01:09:07.900704", "MEAN_MOTION": 14.50470271, "ECCENTRICITY": 0.01269732, "INCLINATION": 98.2627, "RA_OF_ASC_NODE": 29.2707, "ARG_OF_PERICENTER": 348.6992, "MEAN_ANOMALY": 11.1357, "EPHEMERIS_TYPE": 0, "CLASSIFICATION_TYPE": "U", "NORAD_CAT_ID": 30984, "ELEMENT_SET_NO": 999, "REV_AT_EPOCH": 95255, "BSTAR": 0.00057491681, "MEAN_MOTION_DOT": 2.445e-05, "MEAN_MOTION_DDOT": 0}, "tle": {"line1": "1 30984U 99025BCA 25353.04800811  .00002445  00000+0  57492-3 0  9993", "line2": "2 30984  98.2627  29.2707 0126973 348.6992  11.1357 14.50470271952551"}}, "geometry": {"type": "Point", "coordinates": [-105.25883482097811, 78.12023647549056]}}, {"type": "Feature", "properties": {"norad_id": 30988, "name": "FENGYUN 1C DEB", "group": "fengyun-1c-debris", "lat": 53.30000751750709, "lon": 135.0183056219247, "alt_km": 554.6163777677802, "timestamp": "2025-12-20T20:38:44.722507+00:00", "meta": {"OBJECT_NAME": "FENGYUN 1C DEB", "OBJECT_ID": "1999-025BCE", "EPOCH": "2025-12-18T19:20:28.038912", "MEAN_MOTION": 15.2691611, "ECCENTRICITY": 0.01105477, "INCLINATION": 98.5414, "RA_OF_ASC_NODE": 301.0363, "ARG_OF_PERICENTER": 319.2879, "MEAN_ANOMALY": 40.0131, "EPHEMERIS_TYPE": 0, "CLASSIFICATION_TYPE": "U", "NORAD_CAT_ID": 30988, "ELEMENT_SET_NO": 999, "REV_AT_EPOCH": 99656, "BSTAR": 0.0015714985, "MEAN_MOTION_DOT": 0.00049903, "MEAN_MOTION_DDOT": 0}, "tle": {"line1": "1 30988U 99025BCE 25352.80588008  .00049903  00000+0  15715-2 0  9992", "line2": "2 30988  98.5414 301.0363 0110547 319.2879  40.0131 15.26916110996560"}}, "geometry": {"type": "Point", "coordinates": [135.0183056219247, 53.30000751750709]}}, {"type": "Feature", "properties": {"norad_id": 30989, "name": "FENGYUN 1C DEB", "group": "fengyun-1c-debris", "lat": -32.301569841531474, "lon": -117.25460243301495, "alt_km": 898.2202220512536, "timestamp": "2025-12-20T20:38:44.722517+00:00", "meta": {"OBJECT_NAME": "FENGYUN 1C DEB", "OBJECT_ID": "1999-025BCF", "EPOCH": "2025-12-20T04:22:00.257088", "MEAN_MOTION": 14.13972066, "ECCENTRICITY": 0.0090281, "INCLINATION": 99.0527, "RA_OF_ASC_NODE": 67.8434, "ARG_OF_PERICENTER": 78.8744, "MEAN_ANOMALY": 282.2563, "EPHEMERIS_TYPE": 0, "CLASSIFICATION_TYPE": "U", "NORAD_CAT_ID": 30989, "ELEMENT_SET_NO": 999, "REV_AT_EPOCH": 96093, "BSTAR": 0.00095615, "MEAN_MOTION_DOT": 1.843e-05, "MEAN_MOTION_DDOT": 0}, "tle": {"line1": "1 30989U 99025BCF 25354.18194742  .00001843  00000+0  95615-3 0  9993", "line2": "2 30989  99.0527  67.8434 0090281  78.8744 282.2563 14.13972066960937"}}, "geometry": {"type": "Point", "coordinates": [-117.25460243301495, -32.301569841531474]}}, {"type": "Feature", "properties": {"norad_id": 30993, "name": "FENGYUN 1C DEB", "group": "fengyun-1c-debris", "lat": 55.82603090879476, "lon": 74.24351917437376, "alt_km": 763.7996521198584, "timestamp": "2025-12-20T20:38:44.722528+00:00", "meta": {"OBJECT_NAME": "FENGYUN 1C DEB", "OBJECT_ID": "1999-025BCK", "EPOCH": "2025-12-20T03:57:22.319424", "MEAN_MOTION": 14.35490597, "ECCENTRICITY": 0.00162031, "INCLINATION": 98.8471, "RA_OF_ASC_NODE": 86.7927, "ARG_OF_PERICENTER": 350.435, "MEAN_ANOMALY": 74.6937, "EPHEMERIS_TYPE": 0, "CLASSIFICATION_TYPE": "U", "NORAD_CAT_ID": 30993, "ELEMENT_SET_NO": 999, "REV_AT_EPOCH": 97026, "BSTAR": 0.0011774155, "MEAN_MOTION_DOT": 3.346e-05, "MEAN_MOTION_DDOT": 0}, "tle": {"line1": "1 30993U 99025BCK 25354.16484166  .00003346  00000+0  11774-2 0  9991", "line2": "2 30993  98.8471  86.7927 0016203 350.4350  74.6937 14.35490597970261"}}, "geometry": {"type": "Point", "coordinates": [74.24351917437376, 55.82603090879476]}}, {"type": "Feature", "properties": {"norad_id": 30994, "name": "FENGYUN 1C DEB", "group": "fengyun-1c-debris", "lat": 56.22357565579044, "lon": -163.707078877881, "alt_km": 836.3910393022516, "timestamp": "2025-12-20T20:38:44.722538+00:00", "meta": {"OBJECT_NAME": "FENGYUN 1C DEB", "OBJECT_ID": "1999-025BCL", "EPOCH": "2025-12-19T23:39:18.802656", "MEAN_MOTION": 14.1177491, "ECCENTRICITY": 0.0018204, "INCLINATION": 98.6995, "RA_OF_ASC_NODE": 2.2116, "ARG_OF_PERICENTER": 154.413, "MEAN_ANOMALY": 205.7947, "EPHEMERIS_TYPE": 0, "CLASSIFICATION_TYPE": "U", "NORAD_CAT_ID": 30994, "ELEMENT_SET_NO": 999, "REV_AT_EPOCH": 96687, "BSTAR": 0.00010787, "MEAN_MOTION_DOT": 1.54e-06, "MEAN_MOTION_DDOT": 0}, "tle": {"line1": "1 30994U 99025BCL 25353.98563429  .00000154  00000+0  10787-3 0  9999", "line2": "2 30994  98.6995   2.2116 0018204 154.4130 205.7947 14.11774910966873"}}, "geometry": {"type": "Point", "coordinates": [-163.707078877881, 56.22357565579044]}}]}